[{"OBJECT_NAME":"STARLINK-36340","OBJECT_ID":"2026-050X","EPOCH":"2026-03-19T13:34:08.257440","MEAN_MOTION":16.00370058,"ECCENTRICITY":8.84e-5,"INCLINATION":53.1619,"RA_OF_ASC_NODE":232.5131,"ARG_OF_PERICENTER":330.3319,"MEAN_ANOMALY":29.7662,"EPHEMERIS_TYPE":0,"CLASSIFICATION_TYPE":"U","NORAD_CAT_ID":68188,"ELEMENT_SET_NO":999,"REV_AT_EPOCH":193,"BSTAR":-0.0012834,"MEAN_MOTION_DOT":-0.00691967,"MEAN_MOTION_DDOT":0.0001722},{"OBJECT_NAME":"STARLINK-36305","OBJECT_ID":"2026-050Y","EPOCH":"2026-03-19T13:33:49.347072","MEAN_MOTION":16.00507461,"ECCENTRICITY":6.64e-5,"INCLINATION":53.1619,"RA_OF_ASC_NODE":232.5118,"ARG_OF_PERICENTER":330.0991,"MEAN_ANOMALY":30.0002,"EPHEMERIS_TYPE":0,"CLASSIFICATION_TYPE":"U","NORAD_CAT_ID":68189,"ELEMENT_SET_NO":999,"REV_AT_EPOCH":193,"BSTAR":-0.0012521,"MEAN_MOTION_DOT":-0.00680572,"MEAN_MOTION_DDOT":0.00016745},{"OBJECT_NAME":"STARLINK-37071","OBJECT_ID":"2026-050Z","EPOCH":"2026-03-19T13:33:09.686880","MEAN_MOTION":16.00795573,"ECCENTRICITY":7.87e-5,"INCLINATION":53.162,"RA_OF_ASC_NODE":232.5085,"ARG_OF_PERICENTER":120.8561,"MEAN_ANOMALY":239.2548,"EPHEMERIS_TYPE":0,"CLASSIFICATION_TYPE":"U","NORAD_CAT_ID":68190,"ELEMENT_SET_NO":999,"REV_AT_EPOCH":203,"BSTAR":-0.001241,"MEAN_MOTION_DOT":-0.00685813,"MEAN_MOTION_DDOT":0.00017028},{"OBJECT_NAME":"STARLINK-37091","OBJECT_ID":"2026-050AA","EPOCH":"2026-03-19T13:32:49.437312","MEAN_MOTION":16.00938134,"ECCENTRICITY":7.18e-5,"INCLINATION":53.1618,"RA_OF_ASC_NODE":232.5067,"ARG_OF_PERICENTER":334.018,"MEAN_ANOMALY":26.0815,"EPHEMERIS_TYPE":0,"CLASSIFICATION_TYPE":"U","NORAD_CAT_ID":68191,"ELEMENT_SET_NO":999,"REV_AT_EPOCH":203,"BSTAR":-0.0011877,"MEAN_MOTION_DOT":-0.00661998,"MEAN_MOTION_DDOT":0.00016019},{"OBJECT_NAME":"STARLINK-37098","OBJECT_ID":"2026-050AB","EPOCH":"2026-03-19T13:32:29.433984","MEAN_MOTION":16.01069674,"ECCENTRICITY":6.47e-5,"INCLINATION":53.1618,"RA_OF_ASC_NODE":232.5054,"ARG_OF_PERICENTER":327.3796,"MEAN_ANOMALY":32.7195,"EPHEMERIS_TYPE":0,"CLASSIFICATION_TYPE":"U","NORAD_CAT_ID":68192,"ELEMENT_SET_NO":999,"REV_AT_EPOCH":203,"BSTAR":-0.0012086,"MEAN_MOTION_DOT":-0.00678632,"MEAN_MOTION_DDOT":0.00016763},{"OBJECT_NAME":"STARLINK-37090","OBJECT_ID":"2026-050AC","EPOCH":"2026-03-19T13:31:47.877312","MEAN_MOTION":16.01369308,"ECCENTRICITY":7.11e-5,"INCLINATION":53.1621,"RA_OF_ASC_NODE":232.5012,"ARG_OF_PERICENTER":333.6069,"MEAN_ANOMALY":26.4927,"EPHEMERIS_TYPE":0,"CLASSIFICATION_TYPE":"U","NORAD_CAT_ID":68193,"ELEMENT_SET_NO":999,"REV_AT_EPOCH":203,"BSTAR":-0.0011396,"MEAN_MOTION_DOT":-0.00651387,"MEAN_MOTION_DDOT":0.00015641},{"OBJECT_NAME":"STARLINK-37093","OBJECT_ID":"2026-050AD","EPOCH":"2026-03-19T13:33:27.860256","MEAN_MOTION":16.00670231,"ECCENTRICITY":0.0001079,"INCLINATION":53.1623,"RA_OF_ASC_NODE":232.5098,"ARG_OF_PERICENTER":125.0257,"MEAN_ANOMALY":235.0876,"EPHEMERIS_TYPE":0,"CLASSIFICATION_TYPE":"U","NORAD_CAT_ID":68194,"ELEMENT_SET_NO":999,"REV_AT_EPOCH":203,"BSTAR":-0.0012185,"MEAN_MOTION_DOT":-0.00668674,"MEAN_MOTION_DDOT":0.00016258},{"OBJECT_NAME":"STARLINK-37058","OBJECT_ID":"2026-050AE","EPOCH":"2026-03-19T07:32:38.613984","MEAN_MOTION":16.02049525,"ECCENTRICITY":0.0002524,"INCLINATION":53.1616,"RA_OF_ASC_NODE":233.7917,"ARG_OF_PERICENTER":340.0442,"MEAN_ANOMALY":20.049,"EPHEMERIS_TYPE":0,"CLASSIFICATION_TYPE":"U","NORAD_CAT_ID":68195,"ELEMENT_SET_NO":999,"REV_AT_EPOCH":43,"BSTAR":-0.0012605,"MEAN_MOTION_DOT":-0.00749084,"MEAN_MOTION_DDOT":0.00020203},{"OBJECT_NAME":"YAOGAN-50 02","OBJECT_ID":"2026-051A","EPOCH":"2026-03-20T00:00:02.495232","MEAN_MOTION":14.02354822,"ECCENTRICITY":0.00855894,"INCLINATION":141.9942,"RA_OF_ASC_NODE":256.6193,"ARG_OF_PERICENTER":153.1893,"MEAN_ANOMALY":207.328,"EPHEMERIS_TYPE":0,"CLASSIFICATION_TYPE":"U","NORAD_CAT_ID":68196,"ELEMENT_SET_NO":999,"REV_AT_EPOCH":63,"BSTAR":2.823449e-5,"MEAN_MOTION_DOT":2.41e-6,"MEAN_MOTION_DDOT":0},{"OBJECT_NAME":"CZ-6A R/B","OBJECT_ID":"2026-051B","EPOCH":"2026-03-20T09:53:12.607872","MEAN_MOTION":14.56360203,"ECCENTRICITY":0.0185744,"INCLINATION":142.0315,"RA_OF_ASC_NODE":260.5773,"ARG_OF_PERICENTER":127.2273,"MEAN_ANOMALY":234.5559,"EPHEMERIS_TYPE":0,"CLASSIFICATION_TYPE":"U","NORAD_CAT_ID":68197,"ELEMENT_SET_NO":999,"REV_AT_EPOCH":72,"BSTAR":0.00021793013,"MEAN_MOTION_DOT":1.545e-5,"MEAN_MOTION_DDOT":0},{"OBJECT_NAME":"2026-052A","OBJECT_ID":"2026-052A","EPOCH":"2026-03-20T11:01:27.661152","MEAN_MOTION":15.09841126,"ECCENTRICITY":0.00123339,"INCLINATION":97.5381,"RA_OF_ASC_NODE":155.6423,"ARG_OF_PERICENTER":249.3239,"MEAN_ANOMALY":110.6668,"EPHEMERIS_TYPE":0,"CLASSIFICATION_TYPE":"U","NORAD_CAT_ID":68198,"ELEMENT_SET_NO":999,"REV_AT_EPOCH":65,"BSTAR":0.00029726867,"MEAN_MOTION_DOT":4.753e-5,"MEAN_MOTION_DDOT":0},{"OBJECT_NAME":"YUXING-3 06","OBJECT_ID":"2026-052B","EPOCH":"2026-03-20T17:22:29.737056","MEAN_MOTION":15.09996969,"ECCENTRICITY":0.0011584,"INCLINATION":97.5384,"RA_OF_ASC_NODE":155.903,"ARG_OF_PERICENTER":250.0413,"MEAN_ANOMALY":109.9569,"EPHEMERIS_TYPE":0,"CLASSIFICATION_TYPE":"U","NORAD_CAT_ID":68199,"ELEMENT_SET_NO":999,"REV_AT_EPOCH":69,"BSTAR":0.00016052,"MEAN_MOTION_DOT":2.547e-5,"MEAN_MOTION_DDOT":0},{"OBJECT_NAME":"2026-052C","OBJECT_ID":"2026-052C","EPOCH":"2026-03-19T19:06:04.641984","MEAN_MOTION":15.10119523,"ECCENTRICITY":0.00112569,"INCLINATION":97.5376,"RA_OF_ASC_NODE":154.9921,"ARG_OF_PERICENTER":255.3905,"MEAN_ANOMALY":104.6076,"EPHEMERIS_TYPE":0,"CLASSIFICATION_TYPE":"U","NORAD_CAT_ID":68200,"ELEMENT_SET_NO":999,"REV_AT_EPOCH":54,"BSTAR":-1.2504287e-5,"MEAN_MOTION_DOT":-2.68e-6,"MEAN_MOTION_DDOT":0},{"OBJECT_NAME":"2026-052D","OBJECT_ID":"2026-052D","EPOCH":"2026-03-20T10:59:39.700032","MEAN_MOTION":15.10285251,"ECCENTRICITY":0.00103774,"INCLINATION":97.5385,"RA_OF_ASC_NODE":155.6415,"ARG_OF_PERICENTER":249.7525,"MEAN_ANOMALY":110.259,"EPHEMERIS_TYPE":0,"CLASSIFICATION_TYPE":"U","NORAD_CAT_ID":68201,"ELEMENT_SET_NO":999,"REV_AT_EPOCH":65,"BSTAR":0.0002897753,"MEAN_MOTION_DOT":4.687e-5,"MEAN_MOTION_DDOT":0},{"OBJECT_NAME":"2026-052E","OBJECT_ID":"2026-052E","EPOCH":"2026-03-20T10:59:38.588928","MEAN_MOTION":15.10287704,"ECCENTRICITY":0.00102416,"INCLINATION":97.5381,"RA_OF_ASC_NODE":155.6426,"ARG_OF_PERICENTER":254.1756,"MEAN_ANOMALY":105.8345,"EPHEMERIS_TYPE":0,"CLASSIFICATION_TYPE":"U","NORAD_CAT_ID":68202,"ELEMENT_SET_NO":999,"REV_AT_EPOCH":65,"BSTAR":0.00026921349,"MEAN_MOTION_DOT":4.35e-5,"MEAN_MOTION_DDOT":0},{"OBJECT_NAME":"2026-052F","OBJECT_ID":"2026-052F","EPOCH":"2026-03-20T14:09:24.566688","MEAN_MOTION":15.10544536,"ECCENTRICITY":0.00094652,"INCLINATION":97.5375,"RA_OF_ASC_NODE":155.7789,"ARG_OF_PERICENTER":245.2423,"MEAN_ANOMALY":114.7822,"EPHEMERIS_TYPE":0,"CLASSIFICATION_TYPE":"U","NORAD_CAT_ID":68203,"ELEMENT_SET_NO":999,"REV_AT_EPOCH":67,"BSTAR":0.00035264487,"MEAN_MOTION_DOT":5.758e-5,"MEAN_MOTION_DDOT":0}]
